{
  "norad_id": 60993,
  "name": "STARLINK-11283 [DTC]",
  "history": [
    {
      "epoch": "2026-03-28T18:01:50.705184",
      "apogee_km": 360.55312526842863,
      "perigee_km": 358.82298655057275,
      "latitude_deg": -37.88851864123821,
      "longitude_deg": -8.576994240051135,
      "semi_major_axis_km": 6737.8250559095,
      "eccentricity": 0.00012839,
      "inclination_deg": 53.1608,
      "raan_deg": 187.6528,
      "arg_perigee_deg": 90.7366,
      "mean_anomaly_deg": 269.3799,
      "mean_motion_rev_day": 15.69723522
    }
  ]
}